*******************************************************************************
Ephemeris / WWW_USER Tue Feb 19 21:48:36 2019 Pasadena, USA      / Horizons    
*******************************************************************************
Target body name: Voyager 2 (spacecraft) (-32)    {source: Voyager_2}
Center body name: Earth (399)                     {source: Voyager_2}
Center-site name: Green Bank (GBT)
*******************************************************************************
Start time      : A.D. 2019-Feb-20 19:15:00.0000 UT      
Stop  time      : A.D. 2019-Feb-21 07:15:00.0000 UT      
Step-size       : 1 minutes
*******************************************************************************
Target pole/equ : No model available
Target radii    : (unavailable)                                                
Center geodetic : 280.160200,38.4330940,0.8760930 {E-lon(deg),Lat(deg),Alt(km)}
Center cylindric: 280.160200,5003.37558,3943.7589 {E-lon(deg),Dxy(km),Dz(km)}
Center pole/equ : High-precision EOP model        {East-longitude positive}
Center radii    : 6378.1 x 6378.1 x 6356.8 km     {Equator, meridian, pole}    
Target primary  : Earth
Vis. interferer : MOON (R_eq= 1737.400) km        {source: Voyager_2}
Rel. light bend : Sun, EARTH                      {source: Voyager_2}
Rel. lght bnd GM: 1.3271E+11, 3.9860E+05 km^3/s^2                              
Atmos refraction: NO (AIRLESS)
RA format       : HMS
Time format     : CAL 
RTS-only print  : NO       
EOP file        : eop.190218.p190512                                           
EOP coverage    : DATA-BASED 1962-JAN-20 TO 2019-FEB-18. PREDICTS-> 2019-MAY-11
Units conversion: 1 au= 149597870.700 km, c= 299792.458 km/s, 1 day= 86400.0 s 
Table cut-offs 1: Elevation (-90.0deg=NO ),Airmass (>38.000=NO), Daylight (NO )
Table cut-offs 2: Solar elongation (  0.0,180.0=NO ),Local Hour Angle( 0.0=NO )
Table cut-offs 3: RA/DEC angular rate (     0.0=NO )                           
*******************************************************************************************************************
 Date__(UT)__HR:MN     R.A._(ICRF/J2000.0)_DEC dRA*cosD d(DEC)/dt            delta      deldot    S-O-T /r    S-T-O
*******************************************************************************************************************
$$SOE
 2019-Feb-20 21:27 *   20 06 53.09 -57 34 56.6 1.095688  -0.31407 120.545510364004  -0.5096853  52.7104 /L   0.3732
 2019-Feb-20 21:28 *   20 06 53.10 -57 34 56.6 1.095746  -0.31408 120.545510159547  -0.5099090  52.7109 /L   0.3732
 2019-Feb-20 21:29 *   20 06 53.10 -57 34 56.6 1.095804  -0.31409 120.545509955000  -0.5101364  52.7114 /L   0.3732
 2019-Feb-20 21:30 *   20 06 53.10 -57 34 56.6 1.095862  -0.31410 120.545509750361  -0.5103676  52.7118 /L   0.3732
 2019-Feb-20 21:31 *   20 06 53.10 -57 34 56.6 1.095920  -0.31411 120.545509545628  -0.5106025  52.7123 /L   0.3732
 2019-Feb-20 21:32 *   20 06 53.11 -57 34 56.6 1.095978  -0.31412 120.545509340801  -0.5108412  52.7127 /L   0.3732
 2019-Feb-20 21:33 *   20 06 53.11 -57 34 56.6 1.096036  -0.31413 120.545509135877  -0.5110836  52.7132 /L   0.3732
 2019-Feb-20 21:34 *   20 06 53.11 -57 34 56.7 1.096094  -0.31415 120.545508930855  -0.5113298  52.7137 /L   0.3732
 2019-Feb-20 21:35 *   20 06 53.11 -57 34 56.7 1.096152  -0.31416 120.545508725733  -0.5115797  52.7141 /L   0.3732
 2019-Feb-20 21:36 *   20 06 53.11 -57 34 56.7 1.096210  -0.31417 120.545508520511  -0.5118333  52.7146 /L   0.3732
 2019-Feb-20 21:37 *   20 06 53.12 -57 34 56.7 1.096268  -0.31418 120.545508315186  -0.5120907  52.7151 /L   0.3732
 2019-Feb-20 21:38 *   20 06 53.12 -57 34 56.7 1.096326  -0.31419 120.545508109757  -0.5123518  52.7155 /L   0.3732
 2019-Feb-20 21:39 *   20 06 53.12 -57 34 56.7 1.096384  -0.31420 120.545507904223  -0.5126167  52.7160 /L   0.3732
 2019-Feb-20 21:40 *   20 06 53.12 -57 34 56.7 1.096442  -0.31421 120.545507698582  -0.5128853  52.7165 /L   0.3732
 2019-Feb-20 21:41 *   20 06 53.13 -57 34 56.7 1.096500  -0.31423 120.545507492832  -0.5131577  52.7169 /L   0.3732
 2019-Feb-20 21:42 *   20 06 53.13 -57 34 56.7 1.096558  -0.31424 120.545507286972  -0.5134338  52.7174 /L   0.3732
 2019-Feb-20 21:43 *   20 06 53.13 -57 34 56.7 1.096616  -0.31425 120.545507081001  -0.5137136  52.7179 /L   0.3732
 2019-Feb-20 21:44 *   20 06 53.13 -57 34 56.7 1.096674  -0.31427 120.545506874917  -0.5139972  52.7183 /L   0.3732
 2019-Feb-20 21:45 *   20 06 53.14 -57 34 56.7 1.096731  -0.31428 120.545506668718  -0.5142845  52.7188 /L   0.3732
 2019-Feb-20 21:46 *   20 06 53.14 -57 34 56.7 1.096789  -0.31429 120.545506462403  -0.5145755  52.7192 /L   0.3732
 2019-Feb-20 21:47 *   20 06 53.14 -57 34 56.7 1.096847  -0.31431 120.545506255971  -0.5148703  52.7197 /L   0.3732
 2019-Feb-20 21:48 *   20 06 53.14 -57 34 56.7 1.096905  -0.31432 120.545506049420  -0.5151688  52.7202 /L   0.3732
 2019-Feb-20 21:49 *   20 06 53.14 -57 34 56.7 1.096963  -0.31434 120.545505842748  -0.5154710  52.7206 /L   0.3732
 2019-Feb-20 21:50 *   20 06 53.15 -57 34 56.7 1.097020  -0.31435 120.545505635955  -0.5157770  52.7211 /L   0.3732
 2019-Feb-20 21:51 *   20 06 53.15 -57 34 56.7 1.097078  -0.31437 120.545505429038  -0.5160867  52.7216 /L   0.3732
 2019-Feb-20 21:52 *   20 06 53.15 -57 34 56.7 1.097136  -0.31438 120.545505221996  -0.5164001  52.7220 /L   0.3732
 2019-Feb-20 21:53 *   20 06 53.15 -57 34 56.8 1.097193  -0.31440 120.545505014828  -0.5167172  52.7225 /L   0.3732
 2019-Feb-20 21:54 *   20 06 53.16 -57 34 56.8 1.097251  -0.31441 120.545504807531  -0.5170381  52.7230 /L   0.3732
 2019-Feb-20 21:55 *   20 06 53.16 -57 34 56.8 1.097308  -0.31443 120.545504600106  -0.5173627  52.7234 /L   0.3732
 2019-Feb-20 21:56 *   20 06 53.16 -57 34 56.8 1.097366  -0.31444 120.545504392549  -0.5176909  52.7239 /L   0.3732
 2019-Feb-20 21:57 *   20 06 53.16 -57 34 56.8 1.097423  -0.31446 120.545504184860  -0.5180230  52.7244 /L   0.3732
 2019-Feb-20 21:58 *   20 06 53.16 -57 34 56.8 1.097481  -0.31448 120.545503977037  -0.5183587  52.7248 /L   0.3732
 2019-Feb-20 21:59 *   20 06 53.17 -57 34 56.8 1.097538  -0.31449 120.545503769079  -0.5186981  52.7253 /L   0.3732
 2019-Feb-20 22:00 *   20 06 53.17 -57 34 56.8 1.097596  -0.31451 120.545503560983  -0.5190412  52.7257 /L   0.3732
 2019-Feb-20 22:01 *   20 06 53.17 -57 34 56.8 1.097653  -0.31453 120.545503352750  -0.5193881  52.7262 /L   0.3732
 2019-Feb-20 22:02 *   20 06 53.17 -57 34 56.8 1.097710  -0.31454 120.545503144376  -0.5197386  52.7267 /L   0.3732
 2019-Feb-20 22:03 *   20 06 53.18 -57 34 56.8 1.097767  -0.31456 120.545502935862  -0.5200929  52.7271 /L   0.3732
 2019-Feb-20 22:04 *   20 06 53.18 -57 34 56.8 1.097825  -0.31458 120.545502727204  -0.5204508  52.7276 /L   0.3732
 2019-Feb-20 22:05 *   20 06 53.18 -57 34 56.8 1.097882  -0.31460 120.545502518402  -0.5208124  52.7281 /L   0.3732
 2019-Feb-20 22:06 *   20 06 53.18 -57 34 56.8 1.097939  -0.31462 120.545502309455  -0.5211778  52.7285 /L   0.3732
 2019-Feb-20 22:07 *   20 06 53.19 -57 34 56.8 1.097996  -0.31464 120.545502100360  -0.5215468  52.7290 /L   0.3732
 2019-Feb-20 22:08 *   20 06 53.19 -57 34 56.8 1.098053  -0.31465 120.545501891116  -0.5219195  52.7295 /L   0.3732
 2019-Feb-20 22:09 *   20 06 53.19 -57 34 56.8 1.098110  -0.31467 120.545501681722  -0.5222959  52.7299 /L   0.3733
 2019-Feb-20 22:10 *   20 06 53.19 -57 34 56.8 1.098167  -0.31469 120.545501472177  -0.5226759  52.7304 /L   0.3733
 2019-Feb-20 22:11 *   20 06 53.19 -57 34 56.8 1.098223  -0.31471 120.545501262478  -0.5230597  52.7309 /L   0.3733
 2019-Feb-20 22:12 *   20 06 53.20 -57 34 56.9 1.098280  -0.31473 120.545501052625  -0.5234471  52.7313 /L   0.3733
 2019-Feb-20 22:13 *   20 06 53.20 -57 34 56.9 1.098337  -0.31475 120.545500842615  -0.5238382  52.7318 /L   0.3733
 2019-Feb-20 22:14 *   20 06 53.20 -57 34 56.9 1.098393  -0.31477 120.545500632448  -0.5242329  52.7322 /L   0.3733
 2019-Feb-20 22:15 *   20 06 53.20 -57 34 56.9 1.098450  -0.31479 120.545500422122  -0.5246314  52.7327 /L   0.3733
 2019-Feb-20 22:16 *   20 06 53.21 -57 34 56.9 1.098507  -0.31481 120.545500211636  -0.5250334  52.7332 /L   0.3733
 2019-Feb-20 22:17 *   20 06 53.21 -57 34 56.9 1.098563  -0.31484 120.545500000987  -0.5254392  52.7336 /L   0.3733
 2019-Feb-20 22:18 *   20 06 53.21 -57 34 56.9 1.098619  -0.31486 120.545499790175  -0.5258486  52.7341 /L   0.3733
 2019-Feb-20 22:19 *   20 06 53.21 -57 34 56.9 1.098676  -0.31488 120.545499579198  -0.5262616  52.7346 /L   0.3733
 2019-Feb-20 22:20 *   20 06 53.21 -57 34 56.9 1.098732  -0.31490 120.545499368055  -0.5266783  52.7350 /L   0.3733
 2019-Feb-20 22:21 *   20 06 53.22 -57 34 56.9 1.098788  -0.31492 120.545499156743  -0.5270986  52.7355 /L   0.3733
 2019-Feb-20 22:22 *   20 06 53.22 -57 34 56.9 1.098844  -0.31494 120.545498945263  -0.5275226  52.7360 /L   0.3733
 2019-Feb-20 22:23 *   20 06 53.22 -57 34 56.9 1.098900  -0.31497 120.545498733612  -0.5279502  52.7364 /L   0.3733
 2019-Feb-20 22:24 *   20 06 53.22 -57 34 56.9 1.098956  -0.31499 120.545498521788  -0.5283814  52.7369 /L   0.3733
 2019-Feb-20 22:25 *   20 06 53.23 -57 34 56.9 1.099012  -0.31501 120.545498309791  -0.5288163  52.7374 /L   0.3733
 2019-Feb-20 22:26 *   20 06 53.23 -57 34 56.9 1.099068  -0.31504 120.545498097619  -0.5292548  52.7378 /L   0.3733
 2019-Feb-20 22:27 *   20 06 53.23 -57 34 56.9 1.099124  -0.31506 120.545497885270  -0.5296969  52.7383 /L   0.3733
 2019-Feb-20 22:28 *   20 06 53.23 -57 34 56.9 1.099179  -0.31508 120.545497672743  -0.5301426  52.7388 /L   0.3733
 2019-Feb-20 22:29 *   20 06 53.24 -57 34 56.9 1.099235  -0.31511 120.545497460036  -0.5305919  52.7392 /L   0.3733
 2019-Feb-20 22:30 *   20 06 53.24 -57 34 56.9 1.099291  -0.31513 120.545497247149  -0.5310448  52.7397 /L   0.3733
 2019-Feb-20 22:31 *   20 06 53.24 -57 34 57.0 1.099346  -0.31516 120.545497034080  -0.5315013  52.7401 /L   0.3733
 2019-Feb-20 22:32 *   20 06 53.24 -57 34 57.0 1.099401  -0.31518 120.545496820826  -0.5319615  52.7406 /L   0.3733
